{
    "links": {
        "self": "http://www.neowsapp.com/rest/v1/neo/3831207?api_key=iIulBulltgU6a56xZRHN4H3l9WmuAYTsLGpBGhQ2"
    },
    "id": "3831207",
    "neo_reference_id": "3831207",
    "name": "(2018 TU1)",
    "designation": "2018 TU1",
    "nasa_jpl_url": "http://ssd.jpl.nasa.gov/sbdb.cgi?sstr=3831207",
    "absolute_magnitude_h": 23.4,
    "estimated_diameter": {
        "kilometers": {
            "estimated_diameter_min": 0.0555334912,
            "estimated_diameter_max": 0.1241766613
        },
        "meters": {
            "estimated_diameter_min": 55.5334911581,
            "estimated_diameter_max": 124.1766612574
        },
        "miles": {
            "estimated_diameter_min": 0.0345069009,
            "estimated_diameter_max": 0.0771597762
        },
        "feet": {
            "estimated_diameter_min": 182.1964991311,
            "estimated_diameter_max": 407.4037573197
        }
    },
    "is_potentially_hazardous_asteroid": false,
    "close_approach_data": [
        {
            "close_approach_date": "2018-11-05",
            "close_approach_date_full": "2018-Nov-05 17:57",
            "epoch_date_close_approach": 1541440620000,
            "relative_velocity": {
                "kilometers_per_second": "5.7721451578",
                "kilometers_per_hour": "20779.7225679721",
                "miles_per_hour": "12911.7115034158"
            },
            "miss_distance": {
                "astronomical": "0.1772382773",
                "lunar": "68.9456898697",
                "kilometers": "26514468.766549351",
                "miles": "16475326.9204730038"
            },
            "orbiting_body": "Earth"
        },
        {
            "close_approach_date": "2144-12-14",
            "close_approach_date_full": "2144-Dec-14 10:45",
            "epoch_date_close_approach": 5520998700000,
            "relative_velocity": {
                "kilometers_per_second": "15.9209287887",
                "kilometers_per_hour": "57315.3436394856",
                "miles_per_hour": "35613.5256075459"
            },
            "miss_distance": {
                "astronomical": "0.4671025023",
                "lunar": "181.7028733947",
                "kilometers": "69877539.415750101",
                "miles": "43419889.5859133538"
            },
            "orbiting_body": "Earth"
        }
    ],
    "orbital_data": {
        "orbit_id": "4",
        "orbit_determination_date": "2020-11-19 05:21:20",
        "first_observation_date": "2018-10-04",
        "last_observation_date": "2018-12-04",
        "data_arc_in_days": 61,
        "observations_used": 24,
        "orbit_uncertainty": "7",
        "minimum_orbit_intersection": ".151252",
        "jupiter_tisserand_invariant": "3.243",
        "epoch_osculation": "2459000.5",
        "eccentricity": ".545049803638238",
        "semi_major_axis": "2.49884143762293",
        "inclination": "2.764213083641453",
        "ascending_node_longitude": "190.3531834061587",
        "orbital_period": "1442.801135880008",
        "perihelion_distance": "1.13684840272346",
        "perihelion_argument": "221.4312063590738",
        "aphelion_distance": "3.8608344725224",
        "perihelion_time": "2458431.741353924180",
        "mean_anomaly": "141.9136064530543",
        "mean_motion": ".2495146358340126",
        "equinox": "J2000",
        "orbit_class": {
            "orbit_class_type": "AMO",
            "orbit_class_description": "Near-Earth asteroid orbits similar to that of 1221 Amor",
            "orbit_class_range": "1.017 AU < q (perihelion) < 1.3 AU"
        }
    },
    "is_sentry_object": false
}